{
  "type": "FeatureCollection",
  "features": [
    {
      "type": "Feature",
      "properties": {
        "norad_id": 39160,
        "name": "VNREDSAT 1",
        "group": "resource",
        "lat": 34.660634941833365,
        "lon": -128.516613431146,
        "alt_km": 674.7373449562201,
        "timestamp": "2025-12-16T19:34:23.921989+00:00",
        "meta_object_name": "VNREDSAT 1",
        "meta_object_id": "2013-021B",
        "meta_epoch": "2025-12-15T23:14:34.402272",
        "meta_mean_motion": 14.6492891,
        "meta_eccentricity": 0.00012343,
        "meta_inclination": 97.9375,
        "meta_ra_of_asc_node": 45.1302,
        "meta_arg_of_pericenter": 77.6344,
        "meta_mean_anomaly": 282.4998,
        "meta_ephemeris_type": 0,
        "meta_classification_type": "U",
        "meta_norad_cat_id": 39160,
        "meta_element_set_no": 999,
        "meta_rev_at_epoch": 67346,
        "meta_bstar": 0.00015479103,
        "meta_mean_motion_dot": 7.82e-06,
        "meta_mean_motion_ddot": 0,
        "tle_line1": "1 39160U 13021B   25349.96845373  .00000782  00000+0  15479-3 0  9999",
        "tle_line2": "2 39160  97.9375  45.1302 0001234  77.6344 282.4998 14.64928910673469"
      },
      "geometry": {
        "type": "Point",
        "coordinates": [
          -128.516613431146,
          34.660634941833365
        ]
      }
    },
    {
      "type": "Feature",
      "properties": {
        "norad_id": 39227,
        "name": "ARIRANG-5 (KOMPSAT-5)",
        "group": "resource",
        "lat": 79.79171141725911,
        "lon": 127.07365799742772,
        "alt_km": 543.6588358784829,
        "timestamp": "2025-12-16T19:34:23.921999+00:00",
        "meta_object_name": "ARIRANG-5 (KOMPSAT-5)",
        "meta_object_id": "2013-042A",
        "meta_epoch": "2025-12-16T08:01:54.632640",
        "meta_mean_motion": 15.04519964,
        "meta_eccentricity": 0.0003485,
        "meta_inclination": 97.6156,
        "meta_ra_of_asc_node": 174.5873,
        "meta_arg_of_pericenter": 48.2741,
        "meta_mean_anomaly": 311.8783,
        "meta_ephemeris_type": 0,
        "meta_classification_type": "U",
        "meta_norad_cat_id": 39227,
        "meta_element_set_no": 999,
        "meta_rev_at_epoch": 67636,
        "meta_bstar": 0.00017472,
        "meta_mean_motion_dot": 2.387e-05,
        "meta_mean_motion_ddot": 0,
        "tle_line1": "1 39227U 13042A   25350.33466010  .00002387  00000+0  17472-3 0  9994",
        "tle_line2": "2 39227  97.6156 174.5873 0003485  48.2741 311.8783 15.04519964676363"
      },
      "geometry": {
        "type": "Point",
        "coordinates": [
          127.07365799742772,
          79.79171141725911
        ]
      }
    },
    {
      "type": "Feature",
      "properties": {
        "norad_id": 39418,
        "name": "SKYSAT-A",
        "group": "resource",
        "lat": -20.140021345964023,
        "lon": -141.83552734866828,
        "alt_km": 523.0963732698183,
        "timestamp": "2025-12-16T19:34:23.922010+00:00",
        "meta_object_name": "SKYSAT-A",
        "meta_object_id": "2013-066C",
        "meta_epoch": "2025-12-15T17:16:12.158688",
        "meta_mean_motion": 15.11626206,
        "meta_eccentricity": 0.00208727,
        "meta_inclination": 97.411,
        "meta_ra_of_asc_node": 39.8378,
        "meta_arg_of_pericenter": 225.6656,
        "meta_mean_anomaly": 134.2864,
        "meta_ephemeris_type": 0,
        "meta_classification_type": "U",
        "meta_norad_cat_id": 39418,
        "meta_element_set_no": 999,
        "meta_rev_at_epoch": 66075,
        "meta_bstar": 0.00013125401,
        "meta_mean_motion_dot": 2.177e-05,
        "meta_mean_motion_ddot": 0,
        "tle_line1": "1 39418U 13066C   25349.71958517  .00002177  00000+0  13125-3 0  9998",
        "tle_line2": "2 39418  97.4110  39.8378 0020872 225.6656 134.2864 15.11626206660750"
      },
      "geometry": {
        "type": "Point",
        "coordinates": [
          -141.83552734866828,
          -20.140021345964023
        ]
      }
    },
    {
      "type": "Feature",
      "properties": {
        "norad_id": 39419,
        "name": "DUBAISAT-2",
        "group": "resource",
        "lat": -64.12066701708333,
        "lon": -3.2646123294128646,
        "alt_km": 541.4501481230564,
        "timestamp": "2025-12-16T19:34:23.922020+00:00",
        "meta_object_name": "DUBAISAT-2",
        "meta_object_id": "2013-066D",
        "meta_epoch": "2025-12-15T23:09:50.194656",
        "meta_mean_motion": 15.08394998,
        "meta_eccentricity": 0.00101523,
        "meta_inclination": 97.4451,
        "meta_ra_of_asc_node": 340.2734,
        "meta_arg_of_pericenter": 310.0989,
        "meta_mean_anomaly": 49.9349,
        "meta_ephemeris_type": 0,
        "meta_classification_type": "U",
        "meta_norad_cat_id": 39419,
        "meta_element_set_no": 999,
        "meta_rev_at_epoch": 65875,
        "meta_bstar": 0.00028595173,
        "meta_mean_motion_dot": 4.39e-05,
        "meta_mean_motion_ddot": 0,
        "tle_line1": "1 39419U 13066D   25349.96516429  .00004390  00000+0  28595-3 0  9994",
        "tle_line2": "2 39419  97.4451 340.2734 0010152 310.0989  49.9349 15.08394998658755"
      },
      "geometry": {
        "type": "Point",
        "coordinates": [
          -3.2646123294128646,
          -64.12066701708333
        ]
      }
    },
    {
      "type": "Feature",
      "properties": {
        "norad_id": 39574,
        "name": "GPM-CORE",
        "group": "resource",
        "lat": -60.01550762862028,
        "lon": 73.10498823264788,
        "alt_km": 432.374516670684,
        "timestamp": "2025-12-16T19:34:23.922031+00:00",
        "meta_object_name": "GPM-CORE",
        "meta_object_id": "2014-009C",
        "meta_epoch": "2025-12-15T22:16:47.025120",
        "meta_mean_motion": 15.4451617,
        "meta_eccentricity": 0.00096509,
        "meta_inclination": 64.973,
        "meta_ra_of_asc_node": 202.0036,
        "meta_arg_of_pericenter": 246.3399,
        "meta_mean_anomaly": 113.6729,
        "meta_ephemeris_type": 0,
        "meta_classification_type": "U",
        "meta_norad_cat_id": 39574,
        "meta_element_set_no": 999,
        "meta_rev_at_epoch": 66950,
        "meta_bstar": 0.00013374658,
        "meta_mean_motion_dot": 5.994e-05,
        "meta_mean_motion_ddot": 0,
        "tle_line1": "1 39574U 14009C   25349.92832205  .00005994  00000+0  13375-3 0  9994",
        "tle_line2": "2 39574  64.9730 202.0036 0009650 246.3399 113.6729 15.44516170669507"
      },
      "geometry": {
        "type": "Point",
        "coordinates": [
          73.10498823264788,
          -60.01550762862028
        ]
      }
    },
    {
      "type": "Feature",
      "properties": {
        "norad_id": 39634,
        "name": "SENTINEL-1A",
        "group": "resource",
        "lat": -75.52545343731576,
        "lon": 29.863755246751587,
        "alt_km": 703.893083649079,
        "timestamp": "2025-12-16T19:34:23.922042+00:00",
        "meta_object_name": "SENTINEL-1A",
        "meta_object_id": "2014-016A",
        "meta_epoch": "2025-12-16T00:10:54.869664",
        "meta_mean_motion": 14.59200984,
        "meta_eccentricity": 0.00012424,
        "meta_inclination": 98.1807,
        "meta_ra_of_asc_node": 355.2011,
        "meta_arg_of_pericenter": 83.7808,
        "meta_mean_anomaly": 276.3534,
        "meta_ephemeris_type": 0,
        "meta_classification_type": "U",
        "meta_norad_cat_id": 39634,
        "meta_element_set_no": 999,
        "meta_rev_at_epoch": 62330,
        "meta_bstar": 7.7489996e-05,
        "meta_mean_motion_dot": 3.2e-06,
        "meta_mean_motion_ddot": 0,
        "tle_line1": "1 39634U 14016A   25350.00757951  .00000320  00000+0  77490-4 0  9991",
        "tle_line2": "2 39634  98.1807 355.2011 0001242  83.7808 276.3534 14.59200984623306"
      },
      "geometry": {
        "type": "Point",
        "coordinates": [
          29.863755246751587,
          -75.52545343731576
        ]
      }
    },
    {
      "type": "Feature",
      "properties": {
        "norad_id": 39731,
        "name": "KAZEOSAT 1",
        "group": "resource",
        "lat": 5.300781309651718,
        "lon": 61.8509993123813,
        "alt_km": 753.8926527138337,
        "timestamp": "2025-12-16T19:34:23.922052+00:00",
        "meta_object_name": "KAZEOSAT 1",
        "meta_object_id": "2014-024A",
        "meta_epoch": "2025-12-15T23:33:56.005344",
        "meta_mean_motion": 14.42064561,
        "meta_eccentricity": 0.00011405,
        "meta_inclination": 98.3432,
        "meta_ra_of_asc_node": 61.8163,
        "meta_arg_of_pericenter": 95.8699,
        "meta_mean_anomaly": 264.2621,
        "meta_ephemeris_type": 0,
        "meta_classification_type": "U",
        "meta_norad_cat_id": 39731,
        "meta_element_set_no": 999,
        "meta_rev_at_epoch": 61215,
        "meta_bstar": 6.663823e-05,
        "meta_mean_motion_dot": 1.76e-06,
        "meta_mean_motion_ddot": 0,
        "tle_line1": "1 39731U 14024A   25349.98189821  .00000176  00000+0  66638-4 0  9999",
        "tle_line2": "2 39731  98.3432  61.8163 0001140  95.8699 264.2621 14.42064561612152"
      },
      "geometry": {
        "type": "Point",
        "coordinates": [
          61.8509993123813,
          5.300781309651718
        ]
      }
    }
  ]
}